NORAD_CAT_ID,OBJECT_NAME,OBJECT_TYPE,EPOCH,MEAN_MOTION,ECCENTRICITY,INCLINATION,RA_OF_ASC_NODE,ARG_OF_PERICENTER,MEAN_ANOMALY,BSTAR,MEAN_MOTION_DOT,MEAN_MOTION_DDOT,TLE_LINE0,TLE_LINE1,TLE_LINE2,SEMIMAJOR_AXIS,PERIOD,APOGEE,PERIGEE,DECAYED
53158.0,STARLINK-4054,PAYLOAD,2022-09-08 14:00:01,15.49843636,9.8e-05,53.2146,145.7368,86.0971,205.7689,0.0010838,0.00061454,0.0,0 STARLINK-4054,1 53158U 22083AC  22251.58334491  .00061454  00000-0  10838-2 0  9998,2 53158  53.2146 145.7368 0000980  86.0971 205.7689 15.49843636  1307,6795.32,92.913,417.851,416.519,0.0
53158.0,STARLINK-4054,PAYLOAD,2022-09-08 22:00:00,15.49896584,0.0001052,53.2148,144.1452,78.2655,274.491,-0.0002796999999999,-0.00016299,0.0,0 STARLINK-4054,1 53158U 22083AC  22251.91667824 -.00016299  00000-0 -27970-3 0  9999,2 53158  53.2148 144.1452 0001052  78.2655 274.4910 15.49896584  9026,6795.165,92.909,417.745,416.315,0.0
53158.0,STARLINK-4054,PAYLOAD,2022-09-09 14:00:01,15.49906523,0.0001135,53.215,140.9576,83.1844,31.4243,-0.00085251,-0.00048573,0.0,0 STARLINK-4054,1 53158U 22083AC  22252.58334491 -.00048573  00000-0 -85251-3 0  9990,2 53158  53.2150 140.9576 0001135  83.1844  31.4243 15.49906523  9134,6795.136,92.909,417.773,416.23,0.0
53158.0,STARLINK-4054,PAYLOAD,2022-09-09 22:00:00,15.49865979,0.0001349,53.2149,139.3661,76.5412,98.9896,-0.00017728,-0.00010493,0.0,0 STARLINK-4054,1 53158U 22083AC  22252.91667824 -.00010493  00000-0 -17728-3 0  9990,2 53158  53.2149 139.3661 0001349  76.5412  98.9896 15.49865979  1305,6795.255,92.911,418.036,416.203,0.0
53158.0,STARLINK-4054,PAYLOAD,2022-09-10 04:00:00,15.49865268,0.0001389,53.2157,138.1695,70.0764,61.1197,0.00010686,5.614e-05,0.0,0 STARLINK-4054,1 53158U 22083AC  22253.16667824  .00005614  00000-0  10686-3 0  9991,2 53158  53.2157 138.1695 0001389  70.0764  61.1197 15.49865268  9227,6795.257,92.911,418.066,416.17800000000005,0.0
53158.0,STARLINK-4054,PAYLOAD,2022-09-10 14:00:01,15.49858551,0.0001283,53.2145,136.1783,83.2706,214.0603,0.0010505999999999,0.00059575,0.0,0 STARLINK-4054,1 53158U 22083AC  22253.58334491  .00059575  00000-0  10506-2 0  9993,2 53158  53.2145 136.1783 0001283  83.2706 214.0603 15.49858551  1304,6795.276,92.912,418.013,416.27,0.0
53158.0,STARLINK-4054,PAYLOAD,2022-09-10 22:00:00,15.49901909,0.0001368,53.2143,134.5869,76.241,281.9969,-0.00021723,-0.00012768,0.0,0 STARLINK-4054,1 53158U 22083AC  22253.91667824 -.00012768  00000-0 -21723-3 0  9998,2 53158  53.2143 134.5869 0001368  76.2410 281.9969 15.49901909  1301,6795.15,92.909,417.944,416.085,0.0
53158.0,STARLINK-4054,PAYLOAD,2022-09-11 14:00:01,15.49840069,0.0001017,53.2137,131.3989,86.7119,33.3961,0.00097226,0.0005502999999999,0.0,0 STARLINK-4054,1 53158U 22083AC  22254.58334491  .00055030  00000-0  97226-3 0  9991,2 53158  53.2137 131.3989 0001017  86.7119  33.3961 15.49840069  1305,6795.331,92.913,417.887,416.504,0.0
53158.0,STARLINK-4054,PAYLOAD,2022-09-11 22:00:00,15.49877794,0.000105,53.2138,129.8076,75.0113,105.981,-2.4927e-05,-1.865e-05,0.0,0 STARLINK-4054,1 53158U 22083AC  22254.91667824 -.00001865  00000-0 -24927-4 0  9995,2 53158  53.2138 129.8076 0001050  75.0113 105.9810 15.49877794  1301,6795.22,92.911,417.799,416.372,0.0
53158.0,STARLINK-4054,PAYLOAD,2022-09-12 04:00:00,15.49869844,0.0001041,53.2134,128.6129,69.5049,67.1573,0.00064785,0.00036469,0.0,0 STARLINK-4054,1 53158U 22083AC  22255.16667824  .00036469  00000-0  64785-3 0  9994,2 53158  53.2134 128.6129 0001041  69.5049  67.1573 15.49869844  9534,6795.243,92.911,417.816,416.401,0.0
53158.0,STARLINK-4054,PAYLOAD,2022-09-12 14:00:01,15.49937783,9.11e-05,53.2144,126.6166,96.3992,206.3998,-0.0017022,-0.0009606,0.0,0 STARLINK-4054,1 53158U 22083AC  22255.58334491 -.00096060  00000-0 -17022-2 0  9997,2 53158  53.2144 126.6166 0000911  96.3992 206.3998 15.49937783  1307,6795.045,92.907,417.529,416.291,0.0
53158.0,STARLINK-4054,PAYLOAD,2022-09-12 20:00:01,15.49997098,0.0001193999999999,53.216,125.4201,87.8222,170.7536,-0.012993,-0.00679738,0.0,0 STARLINK-4054,1 53158U 22083AC  22255.83335648 -.00679738  00000-0 -12993-1 0  9990,2 53158  53.2160 125.4201 0001194  87.8222 170.7536 15.49997098  9638,6794.871999999999,92.903,417.548,415.925,0.0
53158.0,STARLINK-4054,PAYLOAD,2022-09-12 22:00:00,15.49773497,0.0001195,53.2161,125.0217,94.3609,269.425,-0.0088745,-0.00472979,0.0,0 STARLINK-4054,1 53158U 22083AC  22255.91667824 -.00472979  00000-0 -88745-2 0  9990,2 53158  53.2161 125.0217 0001195  94.3609 269.4250 15.49773497  1305,6795.525,92.917,418.202,416.578,0.0
53158.0,STARLINK-4054,PAYLOAD,2022-09-13 14:00:01,15.48812762,0.0001222,53.2174,121.8313,93.2772,31.1532,-0.021347,-0.01059017,0.0,0 STARLINK-4054,1 53158U 22083AC  22256.58334491 -.01059017  00000-0 -21347-1 0  9994,2 53158  53.2174 121.8313 0001222  93.2772  31.1532 15.48812762  1305,6798.335,92.974,421.031,419.369,0.0
53158.0,STARLINK-4054,PAYLOAD,2022-09-13 16:00:00,15.48622582,0.0001315999999999,53.2176,121.4338,99.9367,129.3692,-0.021454,-0.01057388,0.0,0 STARLINK-4054,1 53158U 22083AC  22256.66667824 -.01057388  00000-0 -21454-1 0  9990,2 53158  53.2176 121.4338 0001316  99.9367 129.3692 15.48622582  9761,6798.892,92.986,421.651,419.862,0.0
53158.0,STARLINK-4054,PAYLOAD,2022-09-13 22:00:00,15.480523800000002,0.0001378,53.2174,120.2425,70.1611,113.4296,-0.021886,-0.01057259,0.0,0 STARLINK-4054,1 53158U 22083AC  22256.91667824 -.01057259  00000-0 -21886-1 0  9994,2 53158  53.2174 120.2425 0001378  70.1611 113.4296 15.48052380  1303,6800.561,93.02,423.36300000000006,421.489,0.0
53158.0,STARLINK-4054,PAYLOAD,2022-09-14 14:00:01,15.46532329,0.0001176,53.2176,117.0645,81.0374,218.1388,-0.023027,-0.01054971,0.0,0 STARLINK-4054,1 53158U 22083AC  22257.58334491 -.01054971  00000-0 -23027-1 0  9996,2 53158  53.2176 117.0645 0001176  81.0374 218.1388 15.46532329  1305,6805.016,93.112,427.682,426.081,0.0
53158.0,STARLINK-4054,PAYLOAD,2022-09-14 22:00:00,15.45798384,0.0001088999999999,53.217,115.4826,85.5298,270.0536,-0.02443,-0.01103277,0.0,0 STARLINK-4054,1 53158U 22083AC  22257.91667824 -.01103277  00000-0 -24430-1 0  9995,2 53158  53.2170 115.4826 0001089  85.5298 270.0536 15.45798384  1305,6807.17,93.156,429.776,428.294,0.0
53158.0,STARLINK-4054,PAYLOAD,2022-09-15 06:00:00,15.44998501,0.0001145,53.2166,113.8978,62.8764,348.2391,-0.0237639999999999,-0.01034497,0.0,0 STARLINK-4054,1 53158U 22083AC  22258.25001157 -.01034497  00000-0 -23764-1 0  9990,2 53158  53.2166 113.8978 0001145  62.8764 348.2391 15.44998501 10016,6809.519,93.204,432.164,430.605,0.0
53158.0,STARLINK-4054,PAYLOAD,2022-09-15 14:00:01,15.44304341,0.0001267,53.2165,112.3151,64.123,41.5557,-0.026493,-0.01133796,0.0,0 STARLINK-4054,1 53158U 22083AC  22258.58334491 -.01133796  00000-0 -26493-1 0  9990,2 53158  53.2165 112.3151 0001267  64.1230  41.5557 15.44304341  1302,6811.56,93.246,434.288,432.562,0.0
53158.0,STARLINK-4054,PAYLOAD,2022-09-15 22:00:00,15.43495671,0.0001478,53.2173,110.7362,59.184,100.2069,-0.0256029999999999,-0.0105655,0.0,0 STARLINK-4054,1 53158U 22083AC  22258.91667824 -.01056550  00000-0 -25603-1 0  9990,2 53158  53.2173 110.7362 0001478  59.1840 100.2069 15.43495671  1309,6813.939,93.295,436.811,434.797,0.0
53158.0,STARLINK-4054,PAYLOAD,2022-09-16 14:00:01,15.4197565,0.0001267,53.2174,107.5798,82.6998,181.3246,-0.026879,-0.01068542,0.0,0 STARLINK-4054,1 53158U 22083AC  22259.58334491 -.01068542  00000-0 -26879-1 0  9995,2 53158  53.2174 107.5798 0001267  82.6998 181.3246 15.41975650  1303,6818.416,93.387,441.145,439.417,0.0
53158.0,STARLINK-4054,PAYLOAD,2022-09-16 22:00:00,15.41217521,0.0001236,53.2173,106.0075,69.7777,245.1922,-0.027657,-0.01071579,0.0,0 STARLINK-4054,1 53158U 22083AC  22259.91667824 -.01071579  00000-0 -27657-1 0  9990,2 53158  53.2173 106.0075 0001236  69.7777 245.1922 15.41217521 10262,6820.651999999999,93.433,443.36,441.674,0.0
53158.0,STARLINK-4054,PAYLOAD,2022-09-17 14:00:01,15.396962900000002,0.0001175,53.2174,102.862,74.0458,340.0823,-0.028968,-0.01067288,0.0,0 STARLINK-4054,1 53158U 22083AC  22260.58334491 -.01067288  00000-0 -28968-1 0  9994,2 53158  53.2174 102.8620 0001175  74.0458 340.0823 15.39696290  1301,6825.144,93.525,447.811,446.207,0.0
53158.0,STARLINK-4054,PAYLOAD,2022-09-17 22:00:00,15.38939047,0.0001322,53.2174,101.2951,66.9958,35.3395,-0.029823,-0.01071318,0.0,0 STARLINK-4054,1 53158U 22083AC  22260.91667824 -.01071318  00000-0 -29823-1 0  9990,2 53158  53.2174 101.2951 0001322  66.9958  35.3395 15.38939047  1307,6827.382,93.571,450.15,448.345,0.0
53158.0,STARLINK-4054,PAYLOAD,2022-09-18 14:00:01,15.37418499,0.0001378,53.2175,98.1606,77.37899999999998,118.702,-0.031236,-0.01067809,0.0,0 STARLINK-4054,1 53158U 22083AC  22261.58335648 -.01067809  00000-0 -31236-1 0  9991,2 53158  53.2175  98.1606 0001378  77.3790 118.7020 15.37418499  1303,6831.8830000000025,93.664,454.69,452.807,0.0
53158.0,STARLINK-4054,PAYLOAD,2022-09-18 22:00:00,15.36658376,0.000138,53.2176,96.5989,71.4079,170.0794,-0.031988,-0.01066873,0.0,0 STARLINK-4054,1 53158U 22083AC  22261.91667824 -.01066873  00000-0 -31988-1 0  9996,2 53158  53.2176  96.5989 0001380  71.4079 170.0794 15.36658376  1306,6834.136,93.71,456.944,455.0580000000001,0.0
53158.0,STARLINK-4054,PAYLOAD,2022-09-19 14:00:01,15.35140118,0.0001205999999999,53.2177,93.4753,71.4435,258.2486,-0.033621,-0.01067559,0.0,0 STARLINK-4054,1 53158U 22083AC  22262.58334491 -.01067559  00000-0 -33621-1 0  9999,2 53158  53.2177  93.4753 0001206  71.4435 258.2486 15.35140118  1301,6838.641,93.803,461.331,459.682,0.0
53158.0,STARLINK-4054,PAYLOAD,2022-09-19 22:00:00,15.34380988,0.0001258,53.2176,91.9189,60.9216,311.5028,-0.0345,-0.01069005,0.0,0 STARLINK-4054,1 53158U 22083AC  22262.91667824 -.01069005  00000-0 -34500-1 0  9990,2 53158  53.2176  91.9189 0001258  60.9216 311.5028 15.34380988 10724,6840.897,93.849,463.622,461.901,0.0
